start=new Date('2022-08-20T00:00:00.000Z').valueOf();
sats=[{"COUNTRY_CODE":"US","ECCENTRICITY":"0.00016580","RCS_SIZE":"LARGE","NORAD_CAT_ID":"52602","TLE_LINE1":"1 52602U 22052E   22231.91667824 -.00013940  00000-0 -85953-3 0  9991","BSTAR":"-0.00085953000000","MEAN_ELEMENT_THEORY":"SGP4","TLE_LINE2":"2 52602  53.2163 345.0489 0001658  52.9502 104.7870 15.08835981  1302","TIME_SYSTEM":"UTC","RA_OF_ASC_NODE":"345.0489","EPHEMERIS_TYPE":"0","OBJECT_ID":"2022-052E","INCLINATION":"53.2163","PERIOD":"95.438","APOAPSIS":"540.905","DECAY_DATE":null,"OBJECT_TYPE":"PAYLOAD","ARG_OF_PERICENTER":"52.9502","PERIAPSIS":"538.611","FILE":"3540705","SITE":"AFETR","EPOCH":"2022-08-19T22:00:00.999936","ELEMENT_SET_NO":"999","REF_FRAME":"TEME","MEAN_MOTION":"15.08835981","LAUNCH_DATE":"2022-05-14","REV_AT_EPOCH":"130","OBJECT_NAME":"STARLINK-4012","MEAN_ANOMALY":"104.7870","GP_ID":"210549878","MEAN_MOTION_DOT":"-0.00013940","CLASSIFICATION_TYPE":"U","CENTER_NAME":"EARTH","MEAN_MOTION_DDOT":"0.0000000000000","SEMIMAJOR_AXIS":"6917.893"},{"ECCENTRICITY":"0.00017140","COUNTRY_CODE":"US","BSTAR":"-0.00112300000000","TLE_LINE1":"1 52603U 22052F   22231.91667824 -.00018110  00000-0 -11230-2 0  9992","RCS_SIZE":"LARGE","NORAD_CAT_ID":"52603","TIME_SYSTEM":"UTC","TLE_LINE2":"2 52603  53.2188 345.0396 0001714  50.3690 187.4346 15.08826493  1304","MEAN_ELEMENT_THEORY":"SGP4","OBJECT_ID":"2022-052F","RA_OF_ASC_NODE":"345.0396","EPHEMERIS_TYPE":"0","INCLINATION":"53.2188","DECAY_DATE":null,"APOAPSIS":"540.972","PERIOD":"95.438","OBJECT_TYPE":"PAYLOAD","PERIAPSIS":"538.601","ARG_OF_PERICENTER":"50.3690","EPOCH":"2022-08-19T22:00:00.999936","SITE":"AFETR","FILE":"3540705","MEAN_MOTION":"15.08826493","ELEMENT_SET_NO":"999","REF_FRAME":"TEME","GP_ID":"210550303","MEAN_ANOMALY":"187.4346","REV_AT_EPOCH":"130","OBJECT_NAME":"STARLINK-4016","LAUNCH_DATE":"2022-05-14","MEAN_MOTION_DOT":"-0.00018110","CENTER_NAME":"EARTH","CLASSIFICATION_TYPE":"U","SEMIMAJOR_AXIS":"6917.922","MEAN_MOTION_DDOT":"0.0000000000000"},{"EPOCH":"2022-08-19T22:00:00.999936","SITE":"AFETR","FILE":"3540705","PERIAPSIS":"538.647","ARG_OF_PERICENTER":"44.0908","GP_ID":"210550019","MEAN_ANOMALY":"153.7147","REV_AT_EPOCH":"130","OBJECT_NAME":"STARLINK-4013","LAUNCH_DATE":"2022-05-14","MEAN_MOTION":"15.08817264","REF_FRAME":"TEME","ELEMENT_SET_NO":"999","CENTER_NAME":"EARTH","CLASSIFICATION_TYPE":"U","MEAN_MOTION_DOT":"-0.00015968","SEMIMAJOR_AXIS":"6917.950","MEAN_MOTION_DDOT":"0.0000000000000","ECCENTRICITY":"0.00016880","COUNTRY_CODE":"US","TIME_SYSTEM":"UTC","TLE_LINE2":"2 52604  53.2168 345.0343 0001688  44.0908 153.7147 15.08817264  1308","MEAN_ELEMENT_THEORY":"SGP4","TLE_LINE1":"1 52604U 22052G   22231.91667824 -.00015968  00000-0 -98800-3 0  9990","BSTAR":"-0.00098800000000","RCS_SIZE":"LARGE","NORAD_CAT_ID":"52604","INCLINATION":"53.2168","OBJECT_ID":"2022-052G","EPHEMERIS_TYPE":"0","RA_OF_ASC_NODE":"345.0343","OBJECT_TYPE":"PAYLOAD","DECAY_DATE":null,"APOAPSIS":"540.983","PERIOD":"95.439"},{"COUNTRY_CODE":"US","ECCENTRICITY":"0.00015160","BSTAR":"-0.00311230000000","TLE_LINE1":"1 52605U 22052H   22231.91667824 -.00049492  00000-0 -31123-2 0  9994","RCS_SIZE":"LARGE","NORAD_CAT_ID":"52605","TLE_LINE2":"2 52605  53.2160 350.0487 0001516  58.1534 312.1439 15.08848552  1306","MEAN_ELEMENT_THEORY":"SGP4","TIME_SYSTEM":"UTC","OBJECT_ID":"2022-052H","EPHEMERIS_TYPE":"0","RA_OF_ASC_NODE":"350.0487","INCLINATION":"53.2160","APOAPSIS":"540.768","DECAY_DATE":null,"PERIOD":"95.437","OBJECT_TYPE":"PAYLOAD","PERIAPSIS":"538.671","ARG_OF_PERICENTER":"58.1534","EPOCH":"2022-08-19T22:00:00.999936","FILE":"3540705","SITE":"AFETR","MEAN_MOTION":"15.08848552","ELEMENT_SET_NO":"999","REF_FRAME":"TEME","MEAN_ANOMALY":"312.1439","GP_ID":"210550161","LAUNCH_DATE":"2022-05-14","REV_AT_EPOCH":"130","OBJECT_NAME":"STARLINK-4000","MEAN_MOTION_DOT":"-0.00049492","CLASSIFICATION_TYPE":"U","CENTER_NAME":"EARTH","SEMIMAJOR_AXIS":"6917.854","MEAN_MOTION_DDOT":"0.0000000000000"},{"PERIOD":"95.437","DECAY_DATE":null,"APOAPSIS":"540.863","OBJECT_TYPE":"PAYLOAD","RA_OF_ASC_NODE":"345.0379","EPHEMERIS_TYPE":"0","OBJECT_ID":"2022-052J","INCLINATION":"53.2179","RCS_SIZE":"LARGE","NORAD_CAT_ID":"52606","BSTAR":"-0.00334280000000","TLE_LINE1":"1 52606U 22052J   22231.91667824 -.00053112  00000-0 -33428-2 0  9999","TIME_SYSTEM":"UTC","MEAN_ELEMENT_THEORY":"SGP4","TLE_LINE2":"2 52606  53.2179 345.0379 0001662  52.7873 164.9949 15.08850446  1303","ECCENTRICITY":"0.00016620","COUNTRY_CODE":"US","MEAN_MOTION_DDOT":"0.0000000000000","SEMIMAJOR_AXIS":"6917.848","MEAN_MOTION_DOT":"-0.00053112","CENTER_NAME":"EARTH","CLASSIFICATION_TYPE":"U","ELEMENT_SET_NO":"999","REF_FRAME":"TEME","MEAN_MOTION":"15.08850446","OBJECT_NAME":"STARLINK-3928","REV_AT_EPOCH":"130","LAUNCH_DATE":"2022-05-14","GP_ID":"210549465","MEAN_ANOMALY":"164.9949","ARG_OF_PERICENTER":"52.7873","PERIAPSIS":"538.564","FILE":"3540705","SITE":"AFETR","EPOCH":"2022-08-19T22:00:00.999936"},{"MEAN_MOTION":"15.08835142","ELEMENT_SET_NO":"999","REF_FRAME":"TEME","GP_ID":"210550452","MEAN_ANOMALY":"347.3513","LAUNCH_DATE":"2022-05-14","OBJECT_NAME":"STARLINK-3947","REV_AT_EPOCH":"130","PERIAPSIS":"538.815","ARG_OF_PERICENTER":"62.9527","EPOCH":"2022-08-19T22:00:00.999936","SITE":"AFETR","FILE":"3540705","SEMIMAJOR_AXIS":"6917.895","MEAN_MOTION_DDOT":"0.0000000000000","MEAN_MOTION_DOT":"-0.00037245","CLASSIFICATION_TYPE":"U","CENTER_NAME":"EARTH","TLE_LINE1":"1 52607U 22052K   22231.91667824 -.00037245  00000-0 -23345-2 0  9996","BSTAR":"-0.00233450000000","NORAD_CAT_ID":"52607","RCS_SIZE":"LARGE","MEAN_ELEMENT_THEORY":"SGP4","TLE_LINE2":"2 52607  53.2149 350.0431 0001367  62.9527 347.3513 15.08835142  1307","TIME_SYSTEM":"UTC","COUNTRY_CODE":"US","ECCENTRICITY":"0.00013670","APOAPSIS":"540.706","DECAY_DATE":null,"PERIOD":"95.438","OBJECT_TYPE":"PAYLOAD","OBJECT_ID":"2022-052K","EPHEMERIS_TYPE":"0","RA_OF_ASC_NODE":"350.0431","INCLINATION":"53.2149"},{"CLASSIFICATION_TYPE":"U","CENTER_NAME":"EARTH","MEAN_MOTION_DOT":"-0.00064939","SEMIMAJOR_AXIS":"6917.825","MEAN_MOTION_DDOT":"0.0000000000000","EPOCH":"2022-08-19T22:00:00.999936","SITE":"AFETR","FILE":"3540705","PERIAPSIS":"538.486","ARG_OF_PERICENTER":"45.9542","MEAN_ANOMALY":"211.7929","GP_ID":"210549606","LAUNCH_DATE":"2022-05-14","OBJECT_NAME":"STARLINK-3979","REV_AT_EPOCH":"130","MEAN_MOTION":"15.08858128","ELEMENT_SET_NO":"999","REF_FRAME":"TEME","INCLINATION":"53.2182","OBJECT_ID":"2022-052L","EPHEMERIS_TYPE":"0","RA_OF_ASC_NODE":"345.0371","OBJECT_TYPE":"PAYLOAD","APOAPSIS":"540.894","DECAY_DATE":null,"PERIOD":"95.436","COUNTRY_CODE":"US","ECCENTRICITY":"0.00017400","MEAN_ELEMENT_THEORY":"SGP4","TLE_LINE2":"2 52608  53.2182 345.0371 0001740  45.9542 211.7929 15.08858128  1309","TIME_SYSTEM":"UTC","BSTAR":"-0.00409710000000","TLE_LINE1":"1 52608U 22052L   22231.91667824 -.00064939  00000-0 -40971-2 0  9991","NORAD_CAT_ID":"52608","RCS_SIZE":"LARGE"},{"COUNTRY_CODE":"US","ECCENTRICITY":"0.00017360","BSTAR":"-0.00415530000000","TLE_LINE1":"1 52609U 22052M   22231.91667824 -.00065854  00000-0 -41553-2 0  9996","RCS_SIZE":"LARGE","NORAD_CAT_ID":"52609","MEAN_ELEMENT_THEORY":"SGP4","TLE_LINE2":"2 52609  53.2195 345.0477 0001736  45.0103 247.5609 15.08861053  1303","TIME_SYSTEM":"UTC","OBJECT_ID":"2022-052M","EPHEMERIS_TYPE":"0","RA_OF_ASC_NODE":"345.0477","INCLINATION":"53.2195","APOAPSIS":"540.882","DECAY_DATE":null,"PERIOD":"95.436","OBJECT_TYPE":"PAYLOAD","PERIAPSIS":"538.480","ARG_OF_PERICENTER":"45.0103","EPOCH":"2022-08-19T22:00:00.999936","FILE":"3540705","SITE":"AFETR","MEAN_MOTION":"15.08861053","ELEMENT_SET_NO":"999","REF_FRAME":"TEME","GP_ID":"210549747","MEAN_ANOMALY":"247.5609","LAUNCH_DATE":"2022-05-14","REV_AT_EPOCH":"130","OBJECT_NAME":"STARLINK-3997","MEAN_MOTION_DOT":"-0.00065854","CLASSIFICATION_TYPE":"U","CENTER_NAME":"EARTH","SEMIMAJOR_AXIS":"6917.816","MEAN_MOTION_DDOT":"0.0000000000000"},{"INCLINATION":"53.2151","EPHEMERIS_TYPE":"0","RA_OF_ASC_NODE":"350.0458","OBJECT_ID":"2022-052N","OBJECT_TYPE":"PAYLOAD","PERIOD":"95.439","APOAPSIS":"540.759","DECAY_DATE":null,"COUNTRY_CODE":"US","ECCENTRICITY":"0.00013810","TLE_LINE2":"2 52610  53.2151 350.0458 0001381  53.2283 337.0749 15.08820942  1300","MEAN_ELEMENT_THEORY":"SGP4","TIME_SYSTEM":"UTC","RCS_SIZE":"LARGE","NORAD_CAT_ID":"52610","BSTAR":"-0.00075500000000","TLE_LINE1":"1 52610U 22052N   22231.91667824 -.00012277  00000-0 -75500-3 0  9999","CLASSIFICATION_TYPE":"U","CENTER_NAME":"EARTH","MEAN_MOTION_DOT":"-0.00012277","MEAN_MOTION_DDOT":"0.0000000000000","SEMIMAJOR_AXIS":"6917.939","FILE":"3540705","SITE":"AFETR","EPOCH":"2022-08-19T22:00:00.999936","ARG_OF_PERICENTER":"53.2283","PERIAPSIS":"538.848","LAUNCH_DATE":"2022-05-14","OBJECT_NAME":"STARLINK-3998","REV_AT_EPOCH":"130","MEAN_ANOMALY":"337.0749","GP_ID":"210549879","ELEMENT_SET_NO":"999","REF_FRAME":"TEME","MEAN_MOTION":"15.08820942"},{"EPOCH":"2022-08-19T22:00:00.999936","SITE":"AFETR","FILE":"3540705","PERIAPSIS":"538.821","ARG_OF_PERICENTER":"46.3373","GP_ID":"210550304","MEAN_ANOMALY":"23.9832","LAUNCH_DATE":"2022-05-14","OBJECT_NAME":"STARLINK-3980","REV_AT_EPOCH":"130","MEAN_MOTION":"15.08811673","ELEMENT_SET_NO":"999","REF_FRAME":"TEME","CLASSIFICATION_TYPE":"U","CENTER_NAME":"EARTH","MEAN_MOTION_DOT":"-0.00010475","SEMIMAJOR_AXIS":"6917.967","MEAN_MOTION_DDOT":"0.0000000000000","COUNTRY_CODE":"US","ECCENTRICITY":"0.00014620","MEAN_ELEMENT_THEORY":"SGP4","TLE_LINE2":"2 52611  53.2157 350.0447 0001462  46.3373  23.9832 15.08811673  1303","TIME_SYSTEM":"UTC","BSTAR":"-0.00064151000000","TLE_LINE1":"1 52611U 22052P   22231.91667824 -.00010475  00000-0 -64151-3 0  9998","RCS_SIZE":"LARGE","NORAD_CAT_ID":"52611","INCLINATION":"53.2157","OBJECT_ID":"2022-052P","EPHEMERIS_TYPE":"0","RA_OF_ASC_NODE":"350.0447","OBJECT_TYPE":"PAYLOAD","APOAPSIS":"540.843","DECAY_DATE":null,"PERIOD":"95.439"}];
